ONEWEB-0424             
1 50497U 21132AE  26011.97204809  .00000088  00000+0  19145-3 0  9991
2 50497  87.9183   6.4679 0001612  99.1074 261.0241 13.18685446201055
ONEWEB-0426             
1 50498U 21132AF  26011.93246413  .00000080  00000+0  17020-3 0  9997
2 50498  87.9183   6.4675 0002481  86.9657 273.1759 13.18685591200999
ONEWEB-0427             
1 50499U 21132AG  26012.04628070 -.00000040  00000+0 -13421-3 0  9993
2 50499  87.9182   6.4317 0001913  93.2442 266.8909 13.18687392201037
ONEWEB-0429             
1 50500U 21132AH  26012.03307794  .00000018  00000+0  12862-4 0  9994
2 50500  87.9183   6.4668 0001648  83.4690 276.6630 13.18685790201008
ONEWEB-0430             
1 50501U 21132AJ  26012.02153585 -.00000066  00000+0 -20113-3 0  9993
2 50501  87.9187   6.4655 0001504  89.8060 270.3244 13.18684598201042
ONEWEB-0432             
1 50502U 21132AK  26011.97776429  .00000028  00000+0  37251-4 0  9993
2 50502  87.9179   6.4444 0002075 113.8546 246.2804 13.18679409200993
ONEWEB-0440             
1 50503U 21132AL  26012.04133276 -.00000022  00000+0 -88782-4 0  9991
2 50503  87.9184   6.4510 0001908  75.2076 284.9268 13.18685789200998
ONEWEB-0450             
1 50504U 21132AM  26012.03487475 -.00000038  00000+0 -12985-3 0  9992
2 50504  87.9179   6.4727 0001521  81.9106 278.2199 13.18686568201022
ONEWEB-0410             
1 51622U 22012A   26012.09252260  .00000023  00000+0  25503-4 0  9993
2 51622  87.9098  36.8716 0003148 104.0381 256.1101 13.17648185193141
ONEWEB-0411             
1 51623U 22012B   26012.16732515 -.00000498  00000+0 -14638-2 0  9991
2 51623  87.8777  67.3664 0001354 114.5348 245.5920 13.10370338188850
ONEWEB-0415             
1 51624U 22012C   26012.16401928 -.00000417  00000+0 -12322-2 0  9992
2 51624  87.8774  67.3695 0001567 108.4949 251.6349 13.10371095188851
ONEWEB-0416             
1 51625U 22012D   26012.17563493 -.00000617  00000+0 -18029-2 0  9992
2 51625  87.8779  67.3880 0001793 115.7154 244.4159 13.10373920188895
ONEWEB-0422             
1 51626U 22012E   26012.10264780  .00000002  00000+0 -28881-4 0  9999
2 51626  87.9095  36.8726 0001569  71.0522 289.0779 13.17648752193256
ONEWEB-0423             
1 51627U 22012F   26012.09589537  .00000011  00000+0 -40891-5 0  9994
2 51627  87.9095  36.8837 0001837  89.9171 270.2171 13.17650158193145
ONEWEB-0425             
1 51628U 22012G   26012.18560049 -.00000376  00000+0 -11142-2 0  9991
2 51628  87.8790  67.3598 0002167 100.7907 259.3465 13.10375738188897
ONEWEB-0428             
1 51629U 22012H   26012.16567707 -.00000426  00000+0 -12575-2 0  9995
2 51629  87.8776  67.3800 0001751  98.7164 261.4162 13.10371442188859
ONEWEB-0431             
1 51630U 22012J   26012.13567625  .00000682  00000+0  19165-2 0  9997
2 51630  87.8785  67.3677 0001181 110.3393 249.7861 13.10373096188903
