[{"OBJECT_NAME":"ONEWEB-0424","OBJECT_ID":"2021-132AE","EPOCH":"2026-01-11T23:19:44.954976","MEAN_MOTION":13.18685446,"ECCENTRICITY":0.00016128,"INCLINATION":87.9183,"RA_OF_ASC_NODE":6.4679,"ARG_OF_PERICENTER":99.1074,"MEAN_ANOMALY":261.0241,"EPHEMERIS_TYPE":0,"CLASSIFICATION_TYPE":"U","NORAD_CAT_ID":50497,"ELEMENT_SET_NO":999,"REV_AT_EPOCH":20105,"BSTAR":0.00019144813,"MEAN_MOTION_DOT":8.8e-7,"MEAN_MOTION_DDOT":0},{"OBJECT_NAME":"ONEWEB-0426","OBJECT_ID":"2021-132AF","EPOCH":"2026-01-11T22:22:44.900832","MEAN_MOTION":13.18685591,"ECCENTRICITY":0.00024814,"INCLINATION":87.9183,"RA_OF_ASC_NODE":6.4675,"ARG_OF_PERICENTER":86.9657,"MEAN_ANOMALY":273.1759,"EPHEMERIS_TYPE":0,"CLASSIFICATION_TYPE":"U","NORAD_CAT_ID":50498,"ELEMENT_SET_NO":999,"REV_AT_EPOCH":20099,"BSTAR":0.0001702038,"MEAN_MOTION_DOT":8.0e-7,"MEAN_MOTION_DDOT":0},{"OBJECT_NAME":"ONEWEB-0427","OBJECT_ID":"2021-132AG","EPOCH":"2026-01-12T01:06:38.652480","MEAN_MOTION":13.18687392,"ECCENTRICITY":0.00019138,"INCLINATION":87.9182,"RA_OF_ASC_NODE":6.4317,"ARG_OF_PERICENTER":93.2442,"MEAN_ANOMALY":266.8909,"EPHEMERIS_TYPE":0,"CLASSIFICATION_TYPE":"U","NORAD_CAT_ID":50499,"ELEMENT_SET_NO":999,"REV_AT_EPOCH":20103,"BSTAR":-0.00013420803,"MEAN_MOTION_DOT":-4.0e-7,"MEAN_MOTION_DDOT":0},{"OBJECT_NAME":"ONEWEB-0429","OBJECT_ID":"2021-132AH","EPOCH":"2026-01-12T00:47:37.934016","MEAN_MOTION":13.1868579,"ECCENTRICITY":0.00016481,"INCLINATION":87.9183,"RA_OF_ASC_NODE":6.4668,"ARG_OF_PERICENTER":83.469,"MEAN_ANOMALY":276.663,"EPHEMERIS_TYPE":0,"CLASSIFICATION_TYPE":"U","NORAD_CAT_ID":50500,"ELEMENT_SET_NO":999,"REV_AT_EPOCH":20100,"BSTAR":1.2861747e-5,"MEAN_MOTION_DOT":1.8e-7,"MEAN_MOTION_DDOT":0},{"OBJECT_NAME":"ONEWEB-0430","OBJECT_ID":"2021-132AJ","EPOCH":"2026-01-12T00:31:00.697440","MEAN_MOTION":13.18684598,"ECCENTRICITY":0.00015041,"INCLINATION":87.9187,"RA_OF_ASC_NODE":6.4655,"ARG_OF_PERICENTER":89.806,"MEAN_ANOMALY":270.3244,"EPHEMERIS_TYPE":0,"CLASSIFICATION_TYPE":"U","NORAD_CAT_ID":50501,"ELEMENT_SET_NO":999,"REV_AT_EPOCH":20104,"BSTAR":-0.00020112619,"MEAN_MOTION_DOT":-6.6e-7,"MEAN_MOTION_DDOT":0},{"OBJECT_NAME":"ONEWEB-0432","OBJECT_ID":"2021-132AK","EPOCH":"2026-01-11T23:27:58.834656","MEAN_MOTION":13.18679409,"ECCENTRICITY":0.00020759,"INCLINATION":87.9179,"RA_OF_ASC_NODE":6.4444,"ARG_OF_PERICENTER":113.8546,"MEAN_ANOMALY":246.2804,"EPHEMERIS_TYPE":0,"CLASSIFICATION_TYPE":"U","NORAD_CAT_ID":50502,"ELEMENT_SET_NO":999,"REV_AT_EPOCH":20099,"BSTAR":3.7251486e-5,"MEAN_MOTION_DOT":2.8e-7,"MEAN_MOTION_DDOT":0},{"OBJECT_NAME":"ONEWEB-0440","OBJECT_ID":"2021-132AL","EPOCH":"2026-01-12T00:59:31.150464","MEAN_MOTION":13.18685789,"ECCENTRICITY":0.0001908,"INCLINATION":87.9184,"RA_OF_ASC_NODE":6.451,"ARG_OF_PERICENTER":75.2076,"MEAN_ANOMALY":284.9268,"EPHEMERIS_TYPE":0,"CLASSIFICATION_TYPE":"U","NORAD_CAT_ID":50503,"ELEMENT_SET_NO":999,"REV_AT_EPOCH":20099,"BSTAR":-8.8782337e-5,"MEAN_MOTION_DOT":-2.2e-7,"MEAN_MOTION_DDOT":0},{"OBJECT_NAME":"ONEWEB-0450","OBJECT_ID":"2021-132AM","EPOCH":"2026-01-12T00:50:13.178400","MEAN_MOTION":13.18686568,"ECCENTRICITY":0.00015215,"INCLINATION":87.9179,"RA_OF_ASC_NODE":6.4727,"ARG_OF_PERICENTER":81.9106,"MEAN_ANOMALY":278.2199,"EPHEMERIS_TYPE":0,"CLASSIFICATION_TYPE":"U","NORAD_CAT_ID":50504,"ELEMENT_SET_NO":999,"REV_AT_EPOCH":20102,"BSTAR":-0.00012984931,"MEAN_MOTION_DOT":-3.8e-7,"MEAN_MOTION_DDOT":0},{"OBJECT_NAME":"ONEWEB-0410","OBJECT_ID":"2022-012A","EPOCH":"2026-01-12T02:13:13.952640","MEAN_MOTION":13.17648185,"ECCENTRICITY":0.00031488,"INCLINATION":87.9098,"RA_OF_ASC_NODE":36.8716,"ARG_OF_PERICENTER":104.0381,"MEAN_ANOMALY":256.1101,"EPHEMERIS_TYPE":0,"CLASSIFICATION_TYPE":"U","NORAD_CAT_ID":51622,"ELEMENT_SET_NO":999,"REV_AT_EPOCH":19314,"BSTAR":2.5502754e-5,"MEAN_MOTION_DOT":2.3e-7,"MEAN_MOTION_DDOT":0},{"OBJECT_NAME":"ONEWEB-0411","OBJECT_ID":"2022-012B","EPOCH":"2026-01-12T04:00:56.892960","MEAN_MOTION":13.10370338,"ECCENTRICITY":0.00013542,"INCLINATION":87.8777,"RA_OF_ASC_NODE":67.3664,"ARG_OF_PERICENTER":114.5348,"MEAN_ANOMALY":245.592,"EPHEMERIS_TYPE":0,"CLASSIFICATION_TYPE":"U","NORAD_CAT_ID":51623,"ELEMENT_SET_NO":999,"REV_AT_EPOCH":18885,"BSTAR":-0.0014637501,"MEAN_MOTION_DOT":-4.98e-6,"MEAN_MOTION_DDOT":0},{"OBJECT_NAME":"ONEWEB-0415","OBJECT_ID":"2022-012C","EPOCH":"2026-01-12T03:56:11.265792","MEAN_MOTION":13.10371095,"ECCENTRICITY":0.0001567,"INCLINATION":87.8774,"RA_OF_ASC_NODE":67.3695,"ARG_OF_PERICENTER":108.4949,"MEAN_ANOMALY":251.6349,"EPHEMERIS_TYPE":0,"CLASSIFICATION_TYPE":"U","NORAD_CAT_ID":51624,"ELEMENT_SET_NO":999,"REV_AT_EPOCH":18885,"BSTAR":-0.0012322264,"MEAN_MOTION_DOT":-4.17e-6,"MEAN_MOTION_DDOT":0},{"OBJECT_NAME":"ONEWEB-0416","OBJECT_ID":"2022-012D","EPOCH":"2026-01-12T04:12:54.857952","MEAN_MOTION":13.1037392,"ECCENTRICITY":0.00017936,"INCLINATION":87.8779,"RA_OF_ASC_NODE":67.388,"ARG_OF_PERICENTER":115.7154,"MEAN_ANOMALY":244.4159,"EPHEMERIS_TYPE":0,"CLASSIFICATION_TYPE":"U","NORAD_CAT_ID":51625,"ELEMENT_SET_NO":999,"REV_AT_EPOCH":18889,"BSTAR":-0.0018029362,"MEAN_MOTION_DOT":-6.17e-6,"MEAN_MOTION_DDOT":0},{"OBJECT_NAME":"ONEWEB-0422","OBJECT_ID":"2022-012E","EPOCH":"2026-01-12T02:27:48.769920","MEAN_MOTION":13.17648752,"ECCENTRICITY":0.00015693,"INCLINATION":87.9095,"RA_OF_ASC_NODE":36.8726,"ARG_OF_PERICENTER":71.0522,"MEAN_ANOMALY":289.0779,"EPHEMERIS_TYPE":0,"CLASSIFICATION_TYPE":"U","NORAD_CAT_ID":51626,"ELEMENT_SET_NO":999,"REV_AT_EPOCH":19325,"BSTAR":-2.8881274e-5,"MEAN_MOTION_DOT":2.0e-8,"MEAN_MOTION_DDOT":0},{"OBJECT_NAME":"ONEWEB-0423","OBJECT_ID":"2022-012F","EPOCH":"2026-01-12T02:18:05.359968","MEAN_MOTION":13.17650158,"ECCENTRICITY":0.00018378,"INCLINATION":87.9095,"RA_OF_ASC_NODE":36.8837,"ARG_OF_PERICENTER":89.9171,"MEAN_ANOMALY":270.2171,"EPHEMERIS_TYPE":0,"CLASSIFICATION_TYPE":"U","NORAD_CAT_ID":51627,"ELEMENT_SET_NO":999,"REV_AT_EPOCH":19314,"BSTAR":-4.089097e-6,"MEAN_MOTION_DOT":1.1e-7,"MEAN_MOTION_DDOT":0},{"OBJECT_NAME":"ONEWEB-0425","OBJECT_ID":"2022-012G","EPOCH":"2026-01-12T04:27:15.882336","MEAN_MOTION":13.10375738,"ECCENTRICITY":0.00021678,"INCLINATION":87.879,"RA_OF_ASC_NODE":67.3598,"ARG_OF_PERICENTER":100.7907,"MEAN_ANOMALY":259.3465,"EPHEMERIS_TYPE":0,"CLASSIFICATION_TYPE":"U","NORAD_CAT_ID":51628,"ELEMENT_SET_NO":999,"REV_AT_EPOCH":18889,"BSTAR":-0.0011141817,"MEAN_MOTION_DOT":-3.76e-6,"MEAN_MOTION_DDOT":0},{"OBJECT_NAME":"ONEWEB-0428","OBJECT_ID":"2022-012H","EPOCH":"2026-01-12T03:58:34.498848","MEAN_MOTION":13.10371442,"ECCENTRICITY":0.00017519,"INCLINATION":87.8776,"RA_OF_ASC_NODE":67.38,"ARG_OF_PERICENTER":98.7164,"MEAN_ANOMALY":261.4162,"EPHEMERIS_TYPE":0,"CLASSIFICATION_TYPE":"U","NORAD_CAT_ID":51629,"ELEMENT_SET_NO":999,"REV_AT_EPOCH":18885,"BSTAR":-0.0012574661,"MEAN_MOTION_DOT":-4.26e-6,"MEAN_MOTION_DDOT":0},{"OBJECT_NAME":"ONEWEB-0431","OBJECT_ID":"2022-012J","EPOCH":"2026-01-12T03:15:22.428000","MEAN_MOTION":13.10373096,"ECCENTRICITY":0.00011812,"INCLINATION":87.8785,"RA_OF_ASC_NODE":67.3677,"ARG_OF_PERICENTER":110.3393,"MEAN_ANOMALY":249.7861,"EPHEMERIS_TYPE":0,"CLASSIFICATION_TYPE":"U","NORAD_CAT_ID":51630,"ELEMENT_SET_NO":999,"REV_AT_EPOCH":18890,"BSTAR":0.0019165467,"MEAN_MOTION_DOT":6.82e-6,"MEAN_MOTION_DDOT":0}]
